FLOCK 4G-6              
1 62660U 25009BD  26068.71061311  .00012261  00000+0  45910-3 0  9991
2 62660  97.3980 150.7943 0002380 348.2637  11.8546 15.27432125121307
STARLINK-35506          
1 66324U 25253F   26068.72406323  .00031398  00000+0  11451-2 0  9994
2 66324  43.0030 211.9772 0002642 271.1001  88.9548 15.27595327 20255
